STARLINK-6122           
1 56128U 23046AN  26145.17934705  .00000160  00000+0  15330-4 0  9993
2 56128  43.0035  75.4110 0000768 262.0043  98.0721 15.27576760173896
STARLINK-6121           
1 56129U 23046AP  26145.00481534  .00003091  00000+0  12184-3 0  9992
2 56129  43.0037  24.7717 0001465 260.0962  99.9724 15.27571960174466
STARLINK-6117           
1 56130U 23046AQ  26145.14593914  .00000657  00000+0  33413-4 0  9999
2 56130  43.0046  75.1609 0001267 268.6038  91.4669 15.27576858173898
STARLINK-6120           
1 56131U 23046AR  26145.15365041  .00002195  00000+0  89282-4 0  9993
2 56131  43.0030  75.2113 0001299 268.3903  91.6800 15.27571066173891
STARLINK-6071           
1 56132U 23046AS  26145.18949549  .00002833  00000+0  11246-3 0  9991
2 56132  43.0054  74.6289 0001392 296.9480  63.1229 15.27568139173904
STARLINK-5566           
1 56133U 23046AT  26145.19462258 -.00000481  00000+0 -79520-5 0  9990
2 56133  43.0058  74.6658 0001387 282.1473  77.9223 15.27574173173904
STARLINK-5564           
1 56134U 23046AU  26145.19333704 -.00000078  00000+0  67000-5 0  9995
2 56134  43.0063  74.6545 0001444 272.9404  87.1282 15.27573240173891
STARLINK-5489           
1 56136U 23046AW  26145.19977238  .00000572  00000+0  30332-4 0  9998
2 56136  43.0052  74.7022 0001393 254.1032 105.9666 15.27575492173902
STARLINK-5090           
1 56137U 23046AX  26145.07798098  .00001002  00000+0  45954-4 0  9996
2 56137  43.0055  75.5025 0001408 258.6529 101.4164 15.27572959173881
STARLINK-4774           
1 56138U 23046AY  26145.16392686 -.00000153  00000+0  39683-5 0  9990
2 56138  43.0043  75.2814 0001017 267.6799  92.3937 15.27582180173891
STARLINK-5375           
1 56140U 23046BA  26145.17806022  .00000651  00000+0  33173-4 0  9997
2 56140  43.0044  75.3898 0000973 255.5650 104.5094 15.27568837173893
STARLINK-5377           
1 56141U 23046BB  26145.08183889 -.00000036  00000+0  82141-5 0  9995
2 56141  43.0048  75.5310 0001083 253.9048 106.1684 15.27576480173880
STARLINK-5376           
1 56142U 23046BC  26145.19076131  .00000843  00000+0  40145-4 0  9991
2 56142  43.0053  74.6379 0001172 269.4818  90.5900 15.27579221173904
STARLINK-5016           
1 56143U 23046BD  26145.18728946  .00008038  00000+0  42172-3 0  9994
2 56143  42.9992  82.2803 0000919 226.0582 134.0190 15.16053171173811
STARLINK-5374           
1 56144U 23046BE  26145.07412576  .00000197  00000+0  16680-4 0  9996
2 56144  43.0032  75.4726 0001746 274.0350  86.0302 15.27577096173889
STARLINK-5111           
1 56146U 23046BG  26145.08568830  .00000356  00000+0  22448-4 0  9990
2 56146  43.0050  75.5588 0001374 263.1095  96.9601 15.27578257173882
STARLINK-5140           
1 56147U 23046BH  26145.16671295  .01706030  00000+0  30879-1 0  9997
2 56147  43.0041  37.5046 0001985 283.8222 249.8666 15.46048621  5847
STARLINK-5089           
1 56148U 23046BJ  26145.13631969  .00000408  00000+0  24337-4 0  9999
2 56148  43.0020  38.5611 0000777 262.5626  97.5138 15.27576003174314
PIESAT A                
1 56153U 23047A   26144.43238966  .00002054  00000+0  11578-3 0  9999
2 56153  97.5022 331.9216 0001631  98.6377 261.5039 15.14311659174209
PIESAT B                
1 56154U 23047B   26144.43239229  .00001967  00000+0  11103-3 0  9999
2 56154  97.4997 331.9202 0001568  84.1437 275.9973 15.14308603174202
PIESAT C                
1 56155U 23047C   26144.49846993  .00001168  00000+0  67370-4 0  9999
2 56155  97.5017 331.9849 0001645 118.2524 241.8874 15.14305980174214
PIESAT D                
1 56156U 23047D   26144.43238943  .00001487  00000+0  84811-4 0  9997
2 56156  97.5038 331.9195 0001451 104.0976 256.0417 15.14307879174200
2023-048A               
1 56157U 23048A   26145.19463934 -.00000070  00000+0  33270-4 0  9994
2 56157  63.3997 157.4086 0065190 354.9692   5.0672 13.45389203154843
CHECKMATE 8             
1 56162U 23050A   26144.96623885  .00000083  00000+0  63609-4 0  9992
2 56162  81.0011  94.0410 0007255  32.1482 328.0116 13.84954427158934
CHECKMATE 5             
1 56163U 23050B   26145.15002167  .00000091  00000+0  70914-4 0  9995
2 56163  81.0000  93.6581 0007149  30.1460 330.0106 13.84980204158971
CHECKMATE 4             
1 56164U 23050C   26144.95704594  .00000094  00000+0  73734-4 0  9992
2 56164  81.0005  94.1136 0006742  43.1817 316.9867 13.84810511158922
CHECKMATE 6             
1 56165U 23050D   26144.96281892  .00000104  00000+0  80648-4 0  9999
2 56165  81.0036  94.1770 0011090  16.4270 343.7243 13.86173609158882
CHECKMATE 7             
1 56166U 23050E   26144.96178868  .00000031  00000+0  16729-4 0  9996
2 56166  80.9996  93.5244 0013329  14.2475 345.9055 13.86945525158895
CHECKMATE 2             
1 56167U 23050F   26145.09078631  .00000125  00000+0  10011-3 0  9990
2 56167  81.0037  93.8521 0007596  26.1315 334.0223 13.85155118158918
CHECKMATE 1             
1 56168U 23050G   26145.14239906  .00000089  00000+0  68557-4 0  9999
2 56168  81.0034  94.0592 0012445  51.0226 309.2036 13.84947261158906
