OBJECT_NAME,OBJECT_ID,EPOCH,MEAN_MOTION,ECCENTRICITY,INCLINATION,RA_OF_ASC_NODE,ARG_OF_PERICENTER,MEAN_ANOMALY,EPHEMERIS_TYPE,CLASSIFICATION_TYPE,NORAD_CAT_ID,ELEMENT_SET_NO,REV_AT_EPOCH,BSTAR,MEAN_MOTION_DOT,MEAN_MOTION_DDOT
STARLINK-6122,2023-046AN,2026-05-25T04:18:15.585120,15.27576760,.0000768,43.0035,75.4110,262.0043,98.0721,0,U,56128,999,17389,.1533E-4,.16E-5,0
STARLINK-6121,2023-046AP,2026-05-25T00:06:56.045376,15.27571960,.0001465,43.0037,24.7717,260.0962,99.9724,0,U,56129,999,17446,.12184E-3,.3091E-4,0
STARLINK-6117,2023-046AQ,2026-05-25T03:30:09.141696,15.27576858,.0001267,43.0046,75.1609,268.6038,91.4669,0,U,56130,999,17389,.33413E-4,.657E-5,0
STARLINK-6120,2023-046AR,2026-05-25T03:41:15.395424,15.27571066,.0001299,43.0030,75.2113,268.3903,91.6800,0,U,56131,999,17389,.89282E-4,.2195E-4,0
STARLINK-6071,2023-046AS,2026-05-25T04:32:52.410336,15.27568139,.0001392,43.0054,74.6289,296.9480,63.1229,0,U,56132,999,17390,.11246E-3,.2833E-4,0
STARLINK-5566,2023-046AT,2026-05-25T04:40:15.390912,15.27574173,.0001387,43.0058,74.6658,282.1473,77.9223,0,U,56133,999,17390,-.7952E-5,-.481E-5,0
STARLINK-5564,2023-046AU,2026-05-25T04:38:24.320256,15.27573240,.0001444,43.0063,74.6545,272.9404,87.1282,0,U,56134,999,17389,.67E-5,-.78E-6,0
STARLINK-5489,2023-046AW,2026-05-25T04:47:40.333632,15.27575492,.0001393,43.0052,74.7022,254.1032,105.9666,0,U,56136,999,17390,.30332E-4,.572E-5,0
STARLINK-5090,2023-046AX,2026-05-25T01:52:17.556672,15.27572959,.0001408,43.0055,75.5025,258.6529,101.4164,0,U,56137,999,17388,.45954E-4,.1002E-4,0
STARLINK-4774,2023-046AY,2026-05-25T03:56:03.280704,15.27582180,.0001017,43.0043,75.2814,267.6799,92.3937,0,U,56138,999,17389,.39683E-5,-.153E-5,0
STARLINK-5375,2023-046BA,2026-05-25T04:16:24.403008,15.27568837,.0000973,43.0044,75.3898,255.5650,104.5094,0,U,56140,999,17389,.33173E-4,.651E-5,0
STARLINK-5377,2023-046BB,2026-05-25T01:57:50.880096,15.27576480,.0001083,43.0048,75.5310,253.9048,106.1684,0,U,56141,999,17388,.82141E-5,-.36E-6,0
STARLINK-5376,2023-046BC,2026-05-25T04:34:41.777184,15.27579221,.0001172,43.0053,74.6379,269.4818,90.5900,0,U,56142,999,17390,.40145E-4,.843E-5,0
STARLINK-5016,2023-046BD,2026-05-25T04:29:41.809344,15.16053171,.0000919,42.9992,82.2803,226.0582,134.0190,0,U,56143,999,17381,.42172E-3,.8038E-4,0
STARLINK-5374,2023-046BE,2026-05-25T01:46:44.465664,15.27577096,.0001746,43.0032,75.4726,274.0350,86.0302,0,U,56144,999,17388,.1668E-4,.197E-5,0
STARLINK-5111,2023-046BG,2026-05-25T02:03:23.469120,15.27578257,.0001374,43.0050,75.5588,263.1095,96.9601,0,U,56146,999,17388,.22448E-4,.356E-5,0
STARLINK-5140,2023-046BH,2026-05-25T04:00:03.998880,15.46048621,.0001985,43.0041,37.5046,283.8222,249.8666,0,U,56147,999,584,.30879E-1,.170603E-1,0
STARLINK-5089,2023-046BJ,2026-05-25T03:16:18.021216,15.27576003,.0000777,43.0020,38.5611,262.5626,97.5138,0,U,56148,999,17431,.24337E-4,.408E-5,0
PIESAT A,2023-047A,2026-05-24T10:22:38.466624,15.14311659,.00016311,97.5022,331.9216,98.6377,261.5039,0,U,56153,999,17420,.11577939E-3,.2054E-4,0
PIESAT B,2023-047B,2026-05-24T10:22:38.693856,15.14308603,.00015689,97.4997,331.9202,84.1437,275.9973,0,U,56154,999,17420,.11103469E-3,.1967E-4,0
PIESAT C,2023-047C,2026-05-24T11:57:47.801952,15.14305980,.00016452,97.5017,331.9849,118.2524,241.8874,0,U,56155,999,17421,.67370065E-4,.1168E-4,0
PIESAT D,2023-047D,2026-05-24T10:22:38.446752,15.14307879,.00014511,97.5038,331.9195,104.0976,256.0417,0,U,56156,999,17420,.8481062E-4,.1487E-4,0
2023-048A,2023-048A,2026-05-25T04:40:16.838976,13.45389203,.006519,63.3997,157.4086,354.9692,5.0672,0,U,56157,999,15484,.3327E-4,-.7E-6,0
CHECKMATE 8,2023-050A,2026-05-24T23:11:23.036640,13.84954427,.0007255,81.0011,94.0410,32.1482,328.0116,0,U,56162,999,15893,.63609E-4,.83E-6,0
CHECKMATE 5,2023-050B,2026-05-25T03:36:01.872288,13.84980204,.0007149,81.0000,93.6581,30.1460,330.0106,0,U,56163,999,15897,.70914E-4,.91E-6,0
CHECKMATE 4,2023-050C,2026-05-24T22:58:08.769216,13.84810511,.0006742,81.0005,94.1136,43.1817,316.9867,0,U,56164,999,15892,.73734E-4,.94E-6,0
CHECKMATE 6,2023-050D,2026-05-24T23:06:27.554688,13.86173609,.001109,81.0036,94.1770,16.4270,343.7243,0,U,56165,999,15888,.80648E-4,.104E-5,0
CHECKMATE 7,2023-050E,2026-05-24T23:04:58.541952,13.86945525,.0013329,80.9996,93.5244,14.2475,345.9055,0,U,56166,999,15889,.16729E-4,.31E-6,0
CHECKMATE 2,2023-050F,2026-05-25T02:10:43.937184,13.85155118,.0007596,81.0037,93.8521,26.1315,334.0223,0,U,56167,999,15891,.10011E-3,.125E-5,0
CHECKMATE 1,2023-050G,2026-05-25T03:25:03.278784,13.84947261,.0012445,81.0034,94.0592,51.0226,309.2036,0,U,56168,999,15890,.68557E-4,.89E-6,0
